start=new Date('2023-01-07T00:00:00.000Z').valueOf();
sats=[{"CLASSIFICATION_TYPE":"U","ELEMENT_SET_NO":"999","ECCENTRICITY":"0.00023300","EPOCH":"2023-01-06T14:20:36.821760","GP_ID":"222315197","MEAN_ANOMALY":"327.1115","OBJECT_NAME":"STARLINK-4462","SEMIMAJOR_AXIS":"6917.926","CENTER_NAME":"EARTH","BSTAR":"-0.00024261000000","ARG_OF_PERICENTER":"33.0022","MEAN_ELEMENT_THEORY":"SGP4","RCS_SIZE":"LARGE","TLE_LINE2":"2 53781  53.2172  72.9873 0002330  33.0022 327.1115 15.08825189 18051","EPHEMERIS_TYPE":"0","MEAN_MOTION_DOT":"-0.00004146","TLE_LINE1":"1 53781U 22111J   23006.59764840 -.00004146  00000-0 -24261-3 0  9990","MEAN_MOTION_DDOT":"0.0000000000000","DECAY_DATE":null,"SITE":"AFETR","OBJECT_TYPE":"PAYLOAD","MEAN_MOTION":"15.08825189","OBJECT_ID":"2022-111J","FILE":"3733986","INCLINATION":"53.2172","COUNTRY_CODE":"US","REV_AT_EPOCH":"1805","RA_OF_ASC_NODE":"72.9873","LAUNCH_DATE":"2022-09-11","PERIOD":"95.438","PERIAPSIS":"538.179","REF_FRAME":"TEME","TIME_SYSTEM":"UTC","NORAD_CAT_ID":"53781","APOAPSIS":"541.403"},{"CLASSIFICATION_TYPE":"U","ELEMENT_SET_NO":"999","ECCENTRICITY":"0.00025020","EPOCH":"2023-01-06T11:20:26.690496","GP_ID":"222346476","MEAN_ANOMALY":"330.8229","OBJECT_NAME":"STARLINK-4679","SEMIMAJOR_AXIS":"6917.899","CENTER_NAME":"EARTH","BSTAR":"-0.00011169000000","ARG_OF_PERICENTER":"29.2903","MEAN_ELEMENT_THEORY":"SGP4","RCS_SIZE":"LARGE","TLE_LINE2":"2 53782  53.2193  73.6360 0002502  29.2903 330.8229 15.08834061 18843","EPHEMERIS_TYPE":"0","MEAN_MOTION_DOT":"-0.00002065","TLE_LINE1":"1 53782U 22111K   23006.47253114 -.00002065  00000-0 -11169-3 0  9996","MEAN_MOTION_DDOT":"0.0000000000000","DECAY_DATE":null,"SITE":"AFETR","MEAN_MOTION":"15.08834061","OBJECT_TYPE":"PAYLOAD","OBJECT_ID":"2022-111K","FILE":"3734255","INCLINATION":"53.2193","REV_AT_EPOCH":"1884","COUNTRY_CODE":"US","RA_OF_ASC_NODE":"73.6360","LAUNCH_DATE":"2022-09-11","PERIOD":"95.438","PERIAPSIS":"538.033","REF_FRAME":"TEME","TIME_SYSTEM":"UTC","NORAD_CAT_ID":"53782","APOAPSIS":"541.494"},{"SEMIMAJOR_AXIS":"6917.879","OBJECT_NAME":"STARLINK-4536","CENTER_NAME":"EARTH","BSTAR":"-0.00023673000000","ECCENTRICITY":"0.00026550","CLASSIFICATION_TYPE":"U","ELEMENT_SET_NO":"999","EPOCH":"2023-01-06T10:59:11.950080","MEAN_ANOMALY":"329.2261","GP_ID":"222347164","OBJECT_ID":"2022-111L","DECAY_DATE":null,"SITE":"AFETR","MEAN_MOTION":"15.08840507","OBJECT_TYPE":"PAYLOAD","REV_AT_EPOCH":"1884","COUNTRY_CODE":"US","FILE":"3734255","INCLINATION":"53.2161","PERIAPSIS":"537.907","REF_FRAME":"TEME","RA_OF_ASC_NODE":"73.5363","PERIOD":"95.438","LAUNCH_DATE":"2022-09-11","NORAD_CAT_ID":"53783","APOAPSIS":"541.581","TIME_SYSTEM":"UTC","MEAN_ELEMENT_THEORY":"SGP4","ARG_OF_PERICENTER":"30.8886","TLE_LINE2":"2 53783  53.2161  73.5363 0002655  30.8886 329.2261 15.08840507 18848","EPHEMERIS_TYPE":"0","RCS_SIZE":"LARGE","MEAN_MOTION_DOT":"-0.00004054","MEAN_MOTION_DDOT":"0.0000000000000","TLE_LINE1":"1 53783U 22111L   23006.45777720 -.00004054  00000-0 -23673-3 0  9992"},{"CENTER_NAME":"EARTH","SEMIMAJOR_AXIS":"6917.848","OBJECT_NAME":"STARLINK-4687","BSTAR":"0.00047317000000","EPOCH":"2023-01-06T14:25:55.128864","ECCENTRICITY":"0.00024280","ELEMENT_SET_NO":"999","CLASSIFICATION_TYPE":"U","MEAN_ANOMALY":"317.8946","GP_ID":"222345558","COUNTRY_CODE":"US","REV_AT_EPOCH":"1886","INCLINATION":"53.2168","FILE":"3734255","OBJECT_ID":"2022-111M","SITE":"AFETR","MEAN_MOTION":"15.08850461","OBJECT_TYPE":"PAYLOAD","DECAY_DATE":null,"APOAPSIS":"541.393","NORAD_CAT_ID":"53784","TIME_SYSTEM":"UTC","REF_FRAME":"TEME","PERIAPSIS":"538.034","LAUNCH_DATE":"2022-09-11","PERIOD":"95.437","RA_OF_ASC_NODE":"73.0213","EPHEMERIS_TYPE":"0","TLE_LINE2":"2 53784  53.2168  73.0213 0002428  42.2232 317.8946 15.08850461 18860","RCS_SIZE":"LARGE","MEAN_ELEMENT_THEORY":"SGP4","ARG_OF_PERICENTER":"42.2232","MEAN_MOTION_DDOT":"0.0000000000000","TLE_LINE1":"1 53784U 22111M   23006.60133251  .00007253  00000-0  47317-3 0  9998","MEAN_MOTION_DOT":"0.00007253"},{"MEAN_MOTION_DDOT":"0.0000000000000","TLE_LINE1":"1 53786U 22111P   23006.91667824 -.00427364  00000-0 -27458-1 0  9995","MEAN_MOTION_DOT":"-0.00427364","EPHEMERIS_TYPE":"0","TLE_LINE2":"2 53786  53.2169  61.3304 0001518 334.3751 146.0032 15.10162462  1303","RCS_SIZE":"LARGE","MEAN_ELEMENT_THEORY":"SGP4","ARG_OF_PERICENTER":"334.3751","APOAPSIS":"536.756","NORAD_CAT_ID":"53786","TIME_SYSTEM":"UTC","REF_FRAME":"TEME","PERIAPSIS":"534.657","PERIOD":"95.354","LAUNCH_DATE":"2022-09-11","RA_OF_ASC_NODE":"61.3304","COUNTRY_CODE":"US","REV_AT_EPOCH":"130","INCLINATION":"53.2169","FILE":"3734255","OBJECT_ID":"2022-111P","SITE":"AFETR","OBJECT_TYPE":"PAYLOAD","MEAN_MOTION":"15.10162462","DECAY_DATE":null,"MEAN_ANOMALY":"146.0032","GP_ID":"222345788","EPOCH":"2023-01-06T22:00:00.999936","ECCENTRICITY":"0.00015180","ELEMENT_SET_NO":"999","CLASSIFICATION_TYPE":"U","BSTAR":"-0.02745800000000","CENTER_NAME":"EARTH","SEMIMAJOR_AXIS":"6913.841","OBJECT_NAME":"STARLINK-4631"},{"INCLINATION":"53.2173","FILE":"3734255","REV_AT_EPOCH":"1886","COUNTRY_CODE":"US","OBJECT_TYPE":"PAYLOAD","SITE":"AFETR","MEAN_MOTION":"15.08816586","DECAY_DATE":null,"OBJECT_ID":"2022-111Q","TIME_SYSTEM":"UTC","APOAPSIS":"541.474","NORAD_CAT_ID":"53787","LAUNCH_DATE":"2022-09-11","PERIOD":"95.439","RA_OF_ASC_NODE":"72.8947","REF_FRAME":"TEME","PERIAPSIS":"538.159","RCS_SIZE":"LARGE","EPHEMERIS_TYPE":"0","TLE_LINE2":"2 53787  53.2173  72.8947 0002396  27.7157 332.3962 15.08816586 18868","ARG_OF_PERICENTER":"27.7157","MEAN_ELEMENT_THEORY":"SGP4","TLE_LINE1":"1 53787U 22111Q   23006.58289684 -.00012600  00000-0 -77539-3 0  9993","MEAN_MOTION_DDOT":"0.0000000000000","MEAN_MOTION_DOT":"-0.00012600","CENTER_NAME":"EARTH","OBJECT_NAME":"STARLINK-4743","SEMIMAJOR_AXIS":"6917.952","BSTAR":"-0.00077539000000","EPOCH":"2023-01-06T13:59:22.286976","ELEMENT_SET_NO":"999","CLASSIFICATION_TYPE":"U","ECCENTRICITY":"0.00023960","GP_ID":"222346935","MEAN_ANOMALY":"332.3962"},{"GP_ID":"222346706","MEAN_ANOMALY":"331.8483","EPOCH":"2023-01-06T13:50:09.349440","ELEMENT_SET_NO":"999","CLASSIFICATION_TYPE":"U","ECCENTRICITY":"0.00025060","BSTAR":"-0.00019229000000","CENTER_NAME":"EARTH","OBJECT_NAME":"STARLINK-4666","SEMIMAJOR_AXIS":"6917.915","TLE_LINE1":"1 53789U 22111S   23006.57649710 -.00003347  00000-0 -19229-3 0  9994","MEAN_MOTION_DDOT":"0.0000000000000","MEAN_MOTION_DOT":"-0.00003347","RCS_SIZE":"LARGE","EPHEMERIS_TYPE":"0","TLE_LINE2":"2 53789  53.2196  72.8597 0002506  28.2645 331.8483 15.08828634 18855","ARG_OF_PERICENTER":"28.2645","MEAN_ELEMENT_THEORY":"SGP4","TIME_SYSTEM":"UTC","APOAPSIS":"541.514","NORAD_CAT_ID":"53789","LAUNCH_DATE":"2022-09-11","PERIOD":"95.438","RA_OF_ASC_NODE":"72.8597","REF_FRAME":"TEME","PERIAPSIS":"538.047","INCLINATION":"53.2196","FILE":"3734255","REV_AT_EPOCH":"1885","COUNTRY_CODE":"US","MEAN_MOTION":"15.08828634","SITE":"AFETR","OBJECT_TYPE":"PAYLOAD","DECAY_DATE":null,"OBJECT_ID":"2022-111S"},{"SEMIMAJOR_AXIS":"6917.943","OBJECT_NAME":"STARLINK-4734","CENTER_NAME":"EARTH","BSTAR":"-0.00025856000000","ECCENTRICITY":"0.00025710","ELEMENT_SET_NO":"999","CLASSIFICATION_TYPE":"U","EPOCH":"2023-01-06T14:04:42.473280","MEAN_ANOMALY":"326.7076","GP_ID":"222315209","OBJECT_ID":"2022-111T","SITE":"AFETR","MEAN_MOTION":"15.08819492","OBJECT_TYPE":"PAYLOAD","DECAY_DATE":null,"COUNTRY_CODE":"US","REV_AT_EPOCH":"1805","INCLINATION":"53.2183","FILE":"3733987","REF_FRAME":"TEME","PERIAPSIS":"538.029","LAUNCH_DATE":"2022-09-11","PERIOD":"95.439","RA_OF_ASC_NODE":"72.9222","APOAPSIS":"541.587","NORAD_CAT_ID":"53790","TIME_SYSTEM":"UTC","MEAN_ELEMENT_THEORY":"SGP4","ARG_OF_PERICENTER":"33.4078","EPHEMERIS_TYPE":"0","TLE_LINE2":"2 53790  53.2183  72.9222 0002571  33.4078 326.7076 15.08819492 18054","RCS_SIZE":"LARGE","MEAN_MOTION_DDOT":"0.0000000000000","TLE_LINE1":"1 53790U 22111T   23006.58660270 -.00004399  00000-0 -25856-3 0  9992","MEAN_MOTION_DOT":"-0.00004399"},{"ARG_OF_PERICENTER":"24.9408","MEAN_ELEMENT_THEORY":"SGP4","RCS_SIZE":"LARGE","TLE_LINE2":"2 53792  53.2206  72.8729 0002026  24.9408 335.1682 15.08830787 18057","EPHEMERIS_TYPE":"0","MEAN_MOTION_DOT":"-0.00004680","TLE_LINE1":"1 53792U 22111V   23006.57922494 -.00004680  00000-0 -27616-3 0  9991","MEAN_MOTION_DDOT":"0.0000000000000","DECAY_DATE":null,"MEAN_MOTION":"15.08830787","SITE":"AFETR","OBJECT_TYPE":"PAYLOAD","OBJECT_ID":"2022-111V","FILE":"3733987","INCLINATION":"53.2206","COUNTRY_CODE":"US","REV_AT_EPOCH":"1805","RA_OF_ASC_NODE":"72.8729","PERIOD":"95.438","LAUNCH_DATE":"2022-09-11","PERIAPSIS":"538.372","REF_FRAME":"TEME","TIME_SYSTEM":"UTC","NORAD_CAT_ID":"53792","APOAPSIS":"541.175","CLASSIFICATION_TYPE":"U","ELEMENT_SET_NO":"999","ECCENTRICITY":"0.00020260","EPOCH":"2023-01-06T13:54:05.034816","GP_ID":"222315202","MEAN_ANOMALY":"335.1682","OBJECT_NAME":"STARLINK-4739","SEMIMAJOR_AXIS":"6917.909","CENTER_NAME":"EARTH","BSTAR":"-0.00027616000000"},{"OBJECT_ID":"2022-111W","DECAY_DATE":null,"SITE":"AFETR","OBJECT_TYPE":"PAYLOAD","MEAN_MOTION":"15.08824459","REV_AT_EPOCH":"1805","COUNTRY_CODE":"US","FILE":"3733991","INCLINATION":"53.2188","PERIAPSIS":"538.198","REF_FRAME":"TEME","RA_OF_ASC_NODE":"72.8247","PERIOD":"95.439","LAUNCH_DATE":"2022-09-11","NORAD_CAT_ID":"53793","APOAPSIS":"541.387","TIME_SYSTEM":"UTC","MEAN_ELEMENT_THEORY":"SGP4","ARG_OF_PERICENTER":"26.0257","TLE_LINE2":"2 53793  53.2188  72.8247 0002305  26.0257 334.0851 15.08824459 18052","EPHEMERIS_TYPE":"0","RCS_SIZE":"LARGE","MEAN_MOTION_DOT":"-0.00003573","MEAN_MOTION_DDOT":"0.0000000000000","TLE_LINE1":"1 53793U 22111W   23006.57185796 -.00003573  00000-0 -20656-3 0  9995","SEMIMAJOR_AXIS":"6917.928","OBJECT_NAME":"STARLINK-4728","CENTER_NAME":"EARTH","BSTAR":"-0.00020656000000","ECCENTRICITY":"0.00023050","CLASSIFICATION_TYPE":"U","ELEMENT_SET_NO":"999","EPOCH":"2023-01-06T13:43:28.527744","MEAN_ANOMALY":"334.0851","GP_ID":"222315244"}];
